[{"OBJECT_NAME":"STARLINK-31842","OBJECT_ID":"2024-084U","EPOCH":"2026-03-09T07:22:46.745472","MEAN_MOTION":15.27578838,"ECCENTRICITY":0.00010905,"INCLINATION":43.0059,"RA_OF_ASC_NODE":40.5821,"ARG_OF_PERICENTER":258.4725,"MEAN_ANOMALY":101.6004,"EPHEMERIS_TYPE":0,"CLASSIFICATION_TYPE":"U","NORAD_CAT_ID":59672,"ELEMENT_SET_NO":999,"REV_AT_EPOCH":10435,"BSTAR":5.413736e-6,"MEAN_MOTION_DOT":-1.13e-6,"MEAN_MOTION_DDOT":0},{"OBJECT_NAME":"FLOCK 4G-10","OBJECT_ID":"2025-009BP","EPOCH":"2026-03-09T16:59:55.292640","MEAN_MOTION":15.27155944,"ECCENTRICITY":0.00034694,"INCLINATION":97.3967,"RA_OF_ASC_NODE":150.5883,"ARG_OF_PERICENTER":341.4844,"MEAN_ANOMALY":18.6269,"EPHEMERIS_TYPE":0,"CLASSIFICATION_TYPE":"U","NORAD_CAT_ID":62670,"ELEMENT_SET_NO":999,"REV_AT_EPOCH":12134,"BSTAR":0.00052624432,"MEAN_MOTION_DOT":0.00013952,"MEAN_MOTION_DDOT":0}]
